{"type": "FeatureCollection", "features": [ {"type": "Feature", "properties": {"norad_id": 66052, "name": "HRC MONOBLOCK CAMERA", "group": "stations", "lat": 39.08549375858605, "lon": 150.8516078690758, "alt_km": 399.8652032984328, "timestamp": "2025-12-18T21:31:49.726127+00:00", "meta": {"OBJECT_NAME": "HRC MONOBLOCK CAMERA", "OBJECT_ID": "1998-067XR", "EPOCH": "2025-12-17T23:42:04.173120", "MEAN_MOTION": 15.54503599, "ECCENTRICITY": 0.00027144, "INCLINATION": 51.6291, "RA_OF_ASC_NODE": 115.3324, "ARG_OF_PERICENTER": 206.9196, "MEAN_ANOMALY": 153.1654, "EPHEMERIS_TYPE": 0, "CLASSIFICATION_TYPE": "U", "NORAD_CAT_ID": 66052, "ELEMENT_SET_NO": 999, "REV_AT_EPOCH": 965, "BSTAR": 0.00044715153, "MEAN_MOTION_DOT": 0.00029641, "MEAN_MOTION_DDOT": 0}, "tle": {"line1": "1 66052U 98067XR  25351.98754830  .00029641  00000+0  44715-3 0  9994", "line2": "2 66052  51.6291 115.3324 0002714 206.9196 153.1654 15.54503599  9652"}}, "geometry": {"type": "Point", "coordinates": [150.8516078690758, 39.08549375858605]}}, {"type": "Feature", "properties": {"norad_id": 66174, "name": "HTV-X1", "group": "stations", "lat": -16.40616019502228, "lon": -54.5246144459359, "alt_km": 419.47646529554186, "timestamp": "2025-12-18T21:31:49.726138+00:00", "meta": {"OBJECT_NAME": "HTV-X1", "OBJECT_ID": "2025-241A", "EPOCH": "2025-12-18T05:11:21.338880", "MEAN_MOTION": 15.49648163, "ECCENTRICITY": 0.00031704, "INCLINATION": 51.6313, "RA_OF_ASC_NODE": 115.3593, "ARG_OF_PERICENTER": 265.6107, "MEAN_ANOMALY": 94.4519, "EPHEMERIS_TYPE": 0, "CLASSIFICATION_TYPE": "U", "NORAD_CAT_ID": 66174, "ELEMENT_SET_NO": 999, "REV_AT_EPOCH": 51, "BSTAR": 0.00015154287, "MEAN_MOTION_DOT": 8.098e-05, "MEAN_MOTION_DDOT": 0}, "tle": {"line1": "1 66174U 25241A   25352.21621920  .00008098  00000+0  15154-3 0  9991", "line2": "2 66174  51.6313 115.3593 0003170 265.6107  94.4519 15.49648163   515"}}, "geometry": {"type": "Point", "coordinates": [-54.5246144459359, -16.40616019502228]}}, {"type": "Feature", "properties": {"norad_id": 66515, "name": "SZ-21 MODULE", "group": "stations", "lat": 4.573863831651532, "lon": 153.2795417955897, "alt_km": 380.60370545462683, "timestamp": "2025-12-18T21:31:49.726148+00:00", "meta": {"OBJECT_NAME": "SZ-21 MODULE", "OBJECT_ID": "2025-246C", "EPOCH": "2025-12-18T03:55:20.605152", "MEAN_MOTION": 15.62762889, "ECCENTRICITY": 0.00058648, "INCLINATION": 41.4774, "RA_OF_ASC_NODE": 342.9545, "ARG_OF_PERICENTER": 288.8905, "MEAN_ANOMALY": 71.1299, "EPHEMERIS_TYPE": 0, "CLASSIFICATION_TYPE": "U", "NORAD_CAT_ID": 66515, "ELEMENT_SET_NO": 999, "REV_AT_EPOCH": 529, "BSTAR": 0.00028266875, "MEAN_MOTION_DOT": 0.00025921, "MEAN_MOTION_DDOT": 0}, "tle": {"line1": "1 66515U 25246C   25352.16343293  .00025921  00000+0  28267-3 0  9996", "line2": "2 66515  41.4774 342.9545 0005864 288.8905  71.1299 15.62762889  5296"}}, "geometry": {"type": "Point", "coordinates": [153.2795417955897, 4.573863831651532]}}, {"type": "Feature", "properties": {"norad_id": 66645, "name": "SHENZHOU-22", "group": "stations", "lat": -7.097989194687227, "lon": 167.42445299393012, "alt_km": 391.24339018059345, "timestamp": "2025-12-18T21:31:49.726159+00:00", "meta": {"OBJECT_NAME": "SHENZHOU-22", "OBJECT_ID": "2025-272A", "EPOCH": "2025-12-18T06:53:03.575616", "MEAN_MOTION": 15.59417882, "ECCENTRICITY": 0.00077258, "INCLINATION": 41.4683, "RA_OF_ASC_NODE": 343.0261, "ARG_OF_PERICENTER": 79.3286, "MEAN_ANOMALY": 280.8422, "EPHEMERIS_TYPE": 0, "CLASSIFICATION_TYPE": "U", "NORAD_CAT_ID": 66645, "ELEMENT_SET_NO": 999, "REV_AT_EPOCH": 26357, "BSTAR": 0.00029030456, "MEAN_MOTION_DOT": 0.00023377, "MEAN_MOTION_DDOT": 0}, "tle": {"line1": "1 66645U 25272A   25352.28684694  .00023377  00000+0  29030-3 0  9997", "line2": "2 66645  41.4683 343.0261 0007725  79.3286 280.8422 15.59417882263579"}}, "geometry": {"type": "Point", "coordinates": [167.42445299393012, -7.097989194687227]}}, {"type": "Feature", "properties": {"norad_id": 66664, "name": "SOYUZ-MS 28", "group": "stations", "lat": -16.406161721264194, "lon": -54.52461309641672, "alt_km": 419.4764653706543, "timestamp": "2025-12-18T21:31:49.726169+00:00", "meta": {"OBJECT_NAME": "SOYUZ-MS 28", "OBJECT_ID": "2025-275A", "EPOCH": "2025-12-18T05:11:21.338880", "MEAN_MOTION": 15.49648163, "ECCENTRICITY": 0.00031704, "INCLINATION": 51.6313, "RA_OF_ASC_NODE": 115.3593, "ARG_OF_PERICENTER": 265.6107, "MEAN_ANOMALY": 94.4519, "EPHEMERIS_TYPE": 0, "CLASSIFICATION_TYPE": "U", "NORAD_CAT_ID": 66664, "ELEMENT_SET_NO": 999, "REV_AT_EPOCH": 128, "BSTAR": 0.00015154287, "MEAN_MOTION_DOT": 8.098e-05, "MEAN_MOTION_DDOT": 0}, "tle": {"line1": "1 66664U 25275A   25352.21621920  .00008098  00000+0  15154-3 0  9992", "line2": "2 66664  51.6313 115.3593 0003170 265.6107  94.4519 15.49648163  1284"}}, "geometry": {"type": "Point", "coordinates": [-54.52461309641672, -16.406161721264194]}}, {"type": "Feature", "properties": {"norad_id": 66906, "name": "1998-067XS", "group": "stations", "lat": -49.433771354757184, "lon": -0.38856052566770083, "alt_km": 416.73839388251963, "timestamp": "2025-12-18T21:31:49.726179+00:00", "meta": {"OBJECT_NAME": "1998-067XS", "OBJECT_ID": "1998-067XS", "EPOCH": "2025-12-17T16:35:43.301760", "MEAN_MOTION": 15.50834133, "ECCENTRICITY": 0.0003138, "INCLINATION": 51.6309, "RA_OF_ASC_NODE": 117.8563, "ARG_OF_PERICENTER": 226.0893, "MEAN_ANOMALY": 133.9837, "EPHEMERIS_TYPE": 0, "CLASSIFICATION_TYPE": "U", "NORAD_CAT_ID": 66906, "ELEMENT_SET_NO": 999, "REV_AT_EPOCH": 238, "BSTAR": 0.00042869394, "MEAN_MOTION_DOT": 0.00024822, "MEAN_MOTION_DDOT": 0}, "tle": {"line1": "1 66906U 98067XS  25351.69147340  .00024822  00000+0  42869-3 0  9996", "line2": "2 66906  51.6309 117.8563 0003138 226.0893 133.9837 15.50834133  2389"}}, "geometry": {"type": "Point", "coordinates": [-0.38856052566770083, -49.433771354757184]}}, {"type": "Feature", "properties": {"norad_id": 66907, "name": "1998-067XT", "group": "stations", "lat": -45.069057425642015, "lon": 59.20803744077981, "alt_km": 412.5077419727668, "timestamp": "2025-12-18T21:31:49.726189+00:00", "meta": {"OBJECT_NAME": "1998-067XT", "OBJECT_ID": "1998-067XT", "EPOCH": "2025-12-17T19:32:19.947264", "MEAN_MOTION": 15.52074588, "ECCENTRICITY": 0.00039845, "INCLINATION": 51.6304, "RA_OF_ASC_NODE": 117.1744, "ARG_OF_PERICENTER": 257.0045, "MEAN_ANOMALY": 103.05, "EPHEMERIS_TYPE": 0, "CLASSIFICATION_TYPE": "U", "NORAD_CAT_ID": 66907, "ELEMENT_SET_NO": 999, "REV_AT_EPOCH": 240, "BSTAR": 0.00089323104, "MEAN_MOTION_DOT": 0.00054815, "MEAN_MOTION_DDOT": 0}, "tle": {"line1": "1 66907U 98067XT  25351.81411976  .00054815  00000+0  89323-3 0  9991", "line2": "2 66907  51.6304 117.1744 0003984 257.0045 103.0500 15.52074588  2401"}}, "geometry": {"type": "Point", "coordinates": [59.20803744077981, -45.069057425642015]}}, {"type": "Feature", "properties": {"norad_id": 66908, "name": "1998-067XU", "group": "stations", "lat": -43.1242864164399, "lon": 63.87352742791791, "alt_km": 412.2376590874255, "timestamp": "2025-12-18T21:31:49.726221+00:00", "meta": {"OBJECT_NAME": "1998-067XU", "OBJECT_ID": "1998-067XU", "EPOCH": "2025-12-17T14:53:17.519424", "MEAN_MOTION": 15.52149323, "ECCENTRICITY": 0.00041086, "INCLINATION": 51.6303, "RA_OF_ASC_NODE": 118.1303, "ARG_OF_PERICENTER": 254.9738, "MEAN_ANOMALY": 105.0797, "EPHEMERIS_TYPE": 0, "CLASSIFICATION_TYPE": "U", "NORAD_CAT_ID": 66908, "ELEMENT_SET_NO": 999, "REV_AT_EPOCH": 237, "BSTAR": 0.00089135269, "MEAN_MOTION_DOT": 0.00054848, "MEAN_MOTION_DDOT": 0}, "tle": {"line1": "1 66908U 98067XU  25351.62034166  .00054848  00000+0  89135-3 0  9990", "line2": "2 66908  51.6303 118.1303 0004108 254.9738 105.0797 15.52149323  2373"}}, "geometry": {"type": "Point", "coordinates": [63.87352742791791, -43.1242864164399]}}, {"type": "Feature", "properties": {"norad_id": 66909, "name": "SILVERSAT", "group": "stations", "lat": -40.46292507347082, "lon": 69.25422509693067, "alt_km": 411.8313397670463, "timestamp": "2025-12-18T21:31:49.726234+00:00", "meta": {"OBJECT_NAME": "SILVERSAT", "OBJECT_ID": "1998-067XV", "EPOCH": "2025-12-17T14:52:13.125504", "MEAN_MOTION": 15.52286885, "ECCENTRICITY": 0.00039934, "INCLINATION": 51.6308, "RA_OF_ASC_NODE": 118.1251, "ARG_OF_PERICENTER": 257.3923, "MEAN_ANOMALY": 102.662, "EPHEMERIS_TYPE": 0, "CLASSIFICATION_TYPE": "U", "NORAD_CAT_ID": 66909, "ELEMENT_SET_NO": 999, "REV_AT_EPOCH": 237, "BSTAR": 0.00095195038, "MEAN_MOTION_DOT": 0.00058931, "MEAN_MOTION_DDOT": 0}, "tle": {"line1": "1 66909U 98067XV  25351.61959636  .00058931  00000+0  95195-3 0  9998", "line2": "2 66909  51.6308 118.1251 0003993 257.3923 102.6620 15.52286885  2378"}}, "geometry": {"type": "Point", "coordinates": [69.25422509693067, -40.46292507347082]}}, {"type": "Feature", "properties": {"norad_id": 66910, "name": "1998-067XW", "group": "stations", "lat": -34.2741615229805, "lon": 79.06901180202773, "alt_km": 412.7137430203102, "timestamp": "2025-12-18T21:31:49.726244+00:00", "meta": {"OBJECT_NAME": "1998-067XW", "OBJECT_ID": "1998-067XW", "EPOCH": "2025-12-17T14:49:41.645568", "MEAN_MOTION": 15.52327753, "ECCENTRICITY": 0.00045296, "INCLINATION": 51.6302, "RA_OF_ASC_NODE": 118.1137, "ARG_OF_PERICENTER": 233.5237, "MEAN_ANOMALY": 126.5336, "EPHEMERIS_TYPE": 0, "CLASSIFICATION_TYPE": "U", "NORAD_CAT_ID": 66910, "ELEMENT_SET_NO": 999, "REV_AT_EPOCH": 237, "BSTAR": 0.00083127757, "MEAN_MOTION_DOT": 0.00051432, "MEAN_MOTION_DDOT": 0}, "tle": {"line1": "1 66910U 98067XW  25351.61784312  .00051432  00000+0  83128-3 0  9999", "line2": "2 66910  51.6302 118.1137 0004529 233.5237 126.5336 15.52327753  2376"}}, "geometry": {"type": "Point", "coordinates": [79.06901180202773, -34.2741615229805]}}]}